[{"OBJECT_NAME":"239ALFEROV (RS61S)","OBJECT_ID":"2025-155F","EPOCH":"2026-03-09T21:46:33.382848","MEAN_MOTION":15.29933217,"ECCENTRICITY":0.00084878,"INCLINATION":97.4469,"RA_OF_ASC_NODE":37.6373,"ARG_OF_PERICENTER":151.5904,"MEAN_ANOMALY":208.58,"EPHEMERIS_TYPE":0,"CLASSIFICATION_TYPE":"U","NORAD_CAT_ID":64881,"ELEMENT_SET_NO":999,"REV_AT_EPOCH":6561,"BSTAR":0.00067233359,"MEAN_MOTION_DOT":0.00019457,"MEAN_MOTION_DDOT":0},{"OBJECT_NAME":"STARLINK-35578","OBJECT_ID":"2025-240Y","EPOCH":"2026-03-09T23:32:30.283584","MEAN_MOTION":15.30218173,"ECCENTRICITY":0.00017757,"INCLINATION":53.1598,"RA_OF_ASC_NODE":61.4029,"ARG_OF_PERICENTER":94.6206,"MEAN_ANOMALY":265.4998,"EPHEMERIS_TYPE":0,"CLASSIFICATION_TYPE":"U","NORAD_CAT_ID":66168,"ELEMENT_SET_NO":999,"REV_AT_EPOCH":2203,"BSTAR":0.00089186102,"MEAN_MOTION_DOT":0.00026163,"MEAN_MOTION_DDOT":0}]
